[{"OBJECT_NAME":"STARLINK-2436","OBJECT_ID":"2021-027K","EPOCH":"2026-03-09T13:24:34.974432","MEAN_MOTION":15.3021464,"ECCENTRICITY":0.0001556,"INCLINATION":53.1602,"RA_OF_ASC_NODE":155.5561,"ARG_OF_PERICENTER":86.962,"MEAN_ANOMALY":273.1558,"EPHEMERIS_TYPE":0,"CLASSIFICATION_TYPE":"U","NORAD_CAT_ID":48101,"ELEMENT_SET_NO":999,"REV_AT_EPOCH":27264,"BSTAR":0.0003904,"MEAN_MOTION_DOT":0.00011226,"MEAN_MOTION_DDOT":0},{"OBJECT_NAME":"TOMORROW-S2","OBJECT_ID":"2024-149T","EPOCH":"2026-03-09T18:02:42.746496","MEAN_MOTION":15.30674935,"ECCENTRICITY":0.0001648,"INCLINATION":97.3857,"RA_OF_ASC_NODE":150.0385,"ARG_OF_PERICENTER":234.3331,"MEAN_ANOMALY":125.7757,"EPHEMERIS_TYPE":0,"CLASSIFICATION_TYPE":"U","NORAD_CAT_ID":60485,"ELEMENT_SET_NO":999,"REV_AT_EPOCH":8686,"BSTAR":0.00027683033,"MEAN_MOTION_DOT":8.133e-5,"MEAN_MOTION_DDOT":0}]
